0 IRIDIUM 33 DEB
1 34525U 97051HS  13281.54819054  .00000588  00000-0  20086-3 0  2366
2 34525 086.3755 127.1205 0003193 263.7818 155.9711 14.34751747242352
0 IRIDIUM 33 DEB
1 34525U 97051HS  13282.74705292  .00000576  00000-0  19664-3 0  2375
2 34525 086.3753 126.6162 0003244 257.4659 230.6266 14.34754799242521
0 IRIDIUM 33 DEB
1 34525U 97051HS  13283.79212619  .00000637  00000-0  21817-3 0  2389
2 34525 086.3751 126.1766 0003296 251.9845 230.6201 14.34756459242677
0 IRIDIUM 33 DEB
1 34525U 97051HS  13286.09433062  .00000656  00000-0  22487-3 0  2400
2 34525 086.3748 125.2082 0003471 240.8572 245.4027 14.34759069243001
0 IRIDIUM 33 DEB
1 34525U 97051HS  13287.33507870  .00000733  00000-0  25175-3 0  2411
2 34525 086.3746 124.6861 0003565 234.9870 175.8507 14.34760533243182
0 IRIDIUM 33 DEB
1 34525U 97051HS  13288.51693615  .00000966  00000-0  33423-3 0  2429
2 34525 086.3746 124.1889 0003669 229.9594 161.4774 14.34763505243357
0 IRIDIUM 33 DEB
1 34525U 97051HS  13289.79105744  .00000826  00000-0  28473-3 0  2436
2 34525 086.3747 123.6528 0003806 224.4735 263.8303 14.34766151243537
0 IRIDIUM 33 DEB
1 34525U 97051HS  13291.04525929  .00000795  00000-0  27360-3 0  2448
2 34525 086.3747 123.1250 0003932 219.2272 263.1322 14.34767965243710
0 IRIDIUM 33 DEB
1 34525U 97051HS  13292.30061580  .00000887  00000-0  30637-3 0  2450
2 34525 086.3748 122.5968 0004068 214.4072 267.9788 14.34769532243895
0 IRIDIUM 33 DEB
1 34525U 97051HS  13293.82312882  .00000971  00000-0  33588-3 0  2465
2 34525 086.3748 121.9561 0004227 208.6230 212.8362 14.34771866244111
0 IRIDIUM 33 DEB
1 34525U 97051HS  13295.02099800  .00000997  00000-0  34493-3 0  2476
2 34525 086.3748 121.4520 0004367 204.2691 280.4887 14.34774090244282
